{
    "links": {
        "self": "http://www.neowsapp.com/rest/v1/neo/3757748?api_key=iIulBulltgU6a56xZRHN4H3l9WmuAYTsLGpBGhQ2"
    },
    "id": "3757748",
    "neo_reference_id": "3757748",
    "name": "(2016 QM10)",
    "designation": "2016 QM10",
    "nasa_jpl_url": "http://ssd.jpl.nasa.gov/sbdb.cgi?sstr=3757748",
    "absolute_magnitude_h": 22.7,
    "estimated_diameter": {
        "kilometers": {
            "estimated_diameter_min": 0.0766575574,
            "estimated_diameter_max": 0.1714115092
        },
        "meters": {
            "estimated_diameter_min": 76.6575573531,
            "estimated_diameter_max": 171.4115092306
        },
        "miles": {
            "estimated_diameter_min": 0.0476327831,
            "estimated_diameter_max": 0.1065101409
        },
        "feet": {
            "estimated_diameter_min": 251.5011804664,
            "estimated_diameter_max": 562.3737359442
        }
    },
    "is_potentially_hazardous_asteroid": false,
    "close_approach_data": [
        {
            "close_approach_date": "2016-09-14",
            "close_approach_date_full": "2016-Sep-14 07:45",
            "epoch_date_close_approach": 1473839100000,
            "relative_velocity": {
                "kilometers_per_second": "8.224357848",
                "kilometers_per_hour": "29607.6882528182",
                "miles_per_hour": "18397.0660702025"
            },
            "miss_distance": {
                "astronomical": "0.0934388704",
                "lunar": "36.3477205856",
                "kilometers": "13978255.987046048",
                "miles": "8685685.5097615424"
            },
            "orbiting_body": "Earth"
        },
        {
            "close_approach_date": "2133-10-28",
            "close_approach_date_full": "2133-Oct-28 00:47",
            "epoch_date_close_approach": 5169746820000,
            "relative_velocity": {
                "kilometers_per_second": "7.8966225305",
                "kilometers_per_hour": "28427.8411097631",
                "miles_per_hour": "17663.9549384525"
            },
            "miss_distance": {
                "astronomical": "0.0887002327",
                "lunar": "34.5043905203",
                "kilometers": "13269365.880424349",
                "miles": "8245201.6230160562"
            },
            "orbiting_body": "Earth"
        },
        {
            "close_approach_date": "2195-11-25",
            "close_approach_date_full": "2195-Nov-25 07:50",
            "epoch_date_close_approach": 7128719400000,
            "relative_velocity": {
                "kilometers_per_second": "17.1929233085",
                "kilometers_per_hour": "61894.5239106925",
                "miles_per_hour": "38458.8501488411"
            },
            "miss_distance": {
                "astronomical": "0.3672273312",
                "lunar": "142.8514318368",
                "kilometers": "54936426.553304544",
                "miles": "34135912.5569249472"
            },
            "orbiting_body": "Earth"
        }
    ],
    "orbital_data": {
        "orbit_id": "19",
        "orbit_determination_date": "2018-02-10 07:08:07",
        "first_observation_date": "2016-08-26",
        "last_observation_date": "2016-10-26",
        "data_arc_in_days": 61,
        "observations_used": 172,
        "orbit_uncertainty": "6",
        "minimum_orbit_intersection": ".0549967",
        "jupiter_tisserand_invariant": "3.394",
        "epoch_osculation": "2459000.5",
        "eccentricity": ".5407635635135865",
        "semi_major_axis": "2.281852758671307",
        "inclination": "2.276232972727836",
        "ascending_node_longitude": "231.3802918952346",
        "orbital_period": "1259.011951286664",
        "perihelion_distance": "1.047909929478903",
        "perihelion_argument": "143.5215210298458",
        "aphelion_distance": "3.515795587863711",
        "perihelion_time": "2458921.433086832917",
        "mean_anomaly": "22.60827525192314",
        "mean_motion": ".2859385088696682",
        "equinox": "J2000",
        "orbit_class": {
            "orbit_class_type": "AMO",
            "orbit_class_description": "Near-Earth asteroid orbits similar to that of 1221 Amor",
            "orbit_class_range": "1.017 AU < q (perihelion) < 1.3 AU"
        }
    },
    "is_sentry_object": false
}